SatCatId,ObjectName,LaunchYear,OrbitalPeriod,LaunchMass,StatusCode,Inclination,Status,UcsData,OrbitClassEstimated,LaunchSiteCountry,Owner,UseType,Purpose,LaunchVehicleClass,TLE1,TLE2,MeanMotion,Eccentricity,OrbitClass
49098,ONEWEB-0312,2021,109.29,148.0,+,87.91,Active,1,LEO,Kazakhstan,UK,Commercial,Communications,Soyuz,1 49098U 21075Z   25287.60933205  .00000094  00000+0  20948-3 0  9995,2 49098  87.9100  54.7176 0002004  91.0837 269.0524 13.17648005201265,13.17648005,0.0002004,LEO
49099,ONEWEB-0313,2021,109.29,148.0,+,87.91,Active,1,LEO,Kazakhstan,UK,Commercial,Communications,Soyuz,1 49099U 21075AA  25287.76613046  .00000002  00000+0 -28758-4 0  9999,2 49099  87.9092  54.6961 0001769  94.7936 265.3397 13.17647667201275,13.17647667,0.0001769,LEO
49100,ONEWEB-0314,2021,109.29,148.0,+,87.91,Active,1,LEO,Kazakhstan,UK,Commercial,Communications,Soyuz,1 49100U 21075AB  25287.65657590  .00000122  00000+0  28215-3 0  9991,2 49100  87.9107  54.6618 0002000  89.3838 270.7523 13.17647536201236,13.17647536,0.0002,LEO
49101,ONEWEB-0315,2021,109.72,148.0,+,87.9,Active,1,LEO,Kazakhstan,UK,Commercial,Communications,Soyuz,1 49101U 21075AC  25287.57324973 -.00000288  00000+0 -83522-3 0  9996,2 49101  87.8955  39.4328 0001582  87.4074 272.7236 13.12443546202954,13.12443546,0.0001582,LEO
49102,ONEWEB-0316,2021,109.2,148.0,+,87.92,Active,1,LEO,Kazakhstan,UK,Commercial,Communications,Soyuz,1 49102U 21075AD  25287.69838530  .00000081  00000+0  17325-3 0  9996,2 49102  87.9224  24.2183 0001756  97.3220 262.8112 13.18684585204852,13.18684585,0.0001756,LEO
49103,ONEWEB-0317,2021,109.72,148.0,+,87.9,Active,1,LEO,Kazakhstan,UK,Commercial,Communications,Soyuz,1 49103U 21075AE  25287.33805073 -.00000291  00000+0 -84401-3 0  9998,2 49103  87.8959  39.4953 0002295 117.0639 243.0724 13.12442079202945,13.12442079,0.0002295,LEO
49104,ONEWEB-0318,2021,109.2,148.0,+,87.92,Active,1,LEO,Kazakhstan,UK,Commercial,Communications,Soyuz,1 49104U 21075AF  25287.54333352  .00000170  00000+0  39898-3 0  9992,2 49104  87.9230  24.2360 0001788  93.3995 266.7341 13.18684582204795,13.18684582,0.0001788,LEO
49105,ONEWEB-0319,2021,109.29,148.0,+,87.91,Active,1,LEO,Kazakhstan,UK,Commercial,Communications,Soyuz,1 49105U 21075AG  25287.59583272  .00000114  00000+0  25971-3 0  9991,2 49105  87.9099  54.7139 0001764  83.6546 276.4787 13.17648554201268,13.17648554,0.0001764,LEO
49106,ONEWEB-0323,2021,109.72,148.0,+,87.9,Active,1,LEO,Kazakhstan,UK,Commercial,Communications,Soyuz,1 49106U 21075AH  25287.55703107 -.00000015  00000+0 -75989-4 0  9996,2 49106  87.8958  39.4382 0001863  78.0021 282.1316 13.12443529202339,13.12443529,0.0001863,LEO
49107,ONEWEB-0329,2021,109.29,148.0,+,87.91,Active,1,LEO,Kazakhstan,UK,Commercial,Communications,Soyuz,1 49107U 21075AJ  25287.83207221  .00000085  00000+0  18618-3 0  9994,2 49107  87.9096  54.6699 0001785  93.8913 266.2423 13.17651805201279,13.17651805,0.0001785,LEO
49108,ONEWEB-0330,2021,109.29,148.0,+,87.91,Active,1,LEO,Kazakhstan,UK,Commercial,Communications,Soyuz,1 49108U 21075AK  25287.60510465  .00000024  00000+0  29854-4 0  9995,2 49108  87.9098  54.7197 0001930  96.4512 263.6840 13.17650917201280,13.17650917,0.000193,LEO
49112,RSW-01,2021,107.24,300.0,+,86.4,Active,1,LEO,PRC,China,Commercial,Communications,Long March,1 49112U 21076A   25287.90792294  .00000062  00000+0  82501-4 0  9996,2 49112  86.4054 245.3818 0016820  36.4408 323.7878 13.42828069202969,13.42828069,0.001682,LEO
49113,PAYLOAD B,2021,102.17,-1.0,+,86.41,Active,0,LEO,PRC,China,Unknown,Unknown,Unknown,1 49113U 21076B   25287.99602522  .00000255  00000+0  13563-3 0  9995,2 49113  86.4109 181.1896 0017633 254.4198 105.5037 14.09363163212894,14.09363163,0.0017633,LEO
49114,RSW-02,2021,107.23,300.0,+,86.4,Active,1,LEO,PRC,China,Commercial,Communications,Long March,1 49114U 21076C   25287.89901377  .00000074  00000+0  10364-3 0  9990,2 49114  86.4053 245.3675 0020352  32.6229 327.6168 13.42851068202965,13.42851068,0.0020352,LEO
49115,TJS-7,2021,1436.09,-1.0,+,0.14,Active,1,GSO,PRC,China,Government,Communications,Long March,1 49115U 21077A   25287.89490786 -.00000139  00000+0  00000+0 0  9994,2 49115   0.1312 266.2832 0001039 251.0488  89.0644  1.00272189  7096,1.00272189,0.0001039,GEO
49122,GAOFEN-5 02,2021,98.78,4200.0,+,98.13,Active,1,LEO,PRC,China,Government,Earth Observation,Long March,1 49122U 21079A   25287.66066744  .00000002  00000+0  10256-4 0  9999,2 49122  98.1309 359.1976 0001250  44.3809 315.7490 14.57732467218316,14.57732467,0.000125,LEO
49125,CHINASAT 9B,2021,1436.09,5500.0,+,0.02,Active,1,GSO,PRC,China,Government,Communications,Long March,1 49125U 21080A   25287.93468803 -.00000327  00000+0  00000+0 0  9998,2 49125   0.0166 245.2726 0003446 319.0208 257.3532  1.00271778 15190,1.00271778,0.0003446,GEO
49131,STARLINK-3096,2021,96.11,260.0,+,70.0,Active,1,LEO,USA,USA,Commercial,Communications,Falcon,1 49131U 21082B   25287.88885730 -.00001104  00000+0 -84780-4 0  9990,2 49131  69.9985 262.0577 0002982 270.0509  90.0308 14.98319936225124,14.98319936,0.0002982,LEO
49132,STARLINK-3090,2021,96.11,260.0,+,70.0,Active,1,LEO,USA,USA,Commercial,Communications,Falcon,1 49132U 21082C   25287.76831227 -.00000273  00000+0 -15061-4 0  9992,2 49132  69.9980 302.2480 0003009 268.1835  91.8979 14.98329015224122,14.98329015,0.0003009,LEO
49133,STARLINK-3077,2021,96.11,260.0,+,70.0,Active,1,LEO,USA,USA,Commercial,Communications,Falcon,1 49133U 21082D   25287.85177144  .00000188  00000+0  23526-4 0  9992,2 49133  69.9978 302.1636 0003184 269.7601  90.3193 14.98329007224138,14.98329007,0.0003184,LEO
49134,STARLINK-3078,2021,96.11,260.0,+,70.0,Active,1,LEO,USA,USA,Commercial,Communications,Falcon,1 49134U 21082E   25287.78084026  .00000220  00000+0  26268-4 0  9994,2 49134  69.9979 302.3461 0002957 273.4876  86.5944 14.98327510225321,14.9832751,0.0002957,LEO
49135,STARLINK-3073,2021,96.11,260.0,+,70.0,Active,1,LEO,USA,USA,Commercial,Communications,Falcon,1 49135U 21082F   25287.68440459  .00000169  00000+0  21972-4 0  9999,2 49135  69.9982 262.5654 0003077 270.6837  89.3969 14.98331622225100,14.98331622,0.0003077,LEO
49137,STARLINK-3055,2021,96.16,260.0,+,70.0,Active,1,LEO,USA,USA,Commercial,Communications,Falcon,1 49137U 21082H   25287.93178735 -.00000185  00000+0 -79153-5 0  9999,2 49137  69.9977 282.2829 0003311 272.7461  87.3319 14.97520819224637,14.97520819,0.0003311,LEO
49138,STARLINK-3058,2021,96.11,260.0,+,70.0,Active,1,LEO,USA,USA,Commercial,Communications,Falcon,1 49138U 21082J   25287.84342734  .00001202  00000+0  10847-3 0  9994,2 49138  69.9979 302.1918 0003117 271.1077  88.9725 14.98342751224132,14.98342751,0.0003117,LEO
49139,STARLINK-3057,2021,96.11,260.0,+,70.0,Active,1,LEO,USA,USA,Commercial,Communications,Falcon,1 49139U 21082K   25287.94311887 -.00000735  00000+0 -53834-4 0  9997,2 49139  69.9986 261.9206 0003136 261.8100  98.2703 14.98321481225135,14.98321481,0.0003136,LEO
49141,STARLINK-3093,2021,96.11,260.0,+,70.0,Active,1,LEO,USA,USA,Commercial,Communications,Falcon,1 49141U 21082M   25287.77249504 -.00000248  00000+0 -12996-4 0  9990,2 49141  69.9980 302.3746 0003164 270.1186  89.9611 14.98333526225328,14.98333526,0.0003164,LEO
49143,STARLINK-3109,2021,96.16,260.0,+,70.0,Active,1,LEO,USA,USA,Commercial,Communications,Falcon,1 49143U 21082P   25287.86100575 -.00009902  00000+0 -84214-3 0  9993,2 49143  69.9975 282.4661 0003397 270.6038  89.4731 14.97453771225734,14.97453771,0.0003397,LEO
49144,STARLINK-3100,2021,96.11,260.0,+,70.0,Active,1,LEO,USA,USA,Commercial,Communications,Falcon,1 49144U 21082Q   25287.76414712 -.00000397  00000+0 -25493-4 0  9998,2 49144  69.9978 302.3741 0003246 269.0168  91.0619 14.98331015224121,14.98331015,0.0003246,LEO
49145,STARLINK-3119,2021,96.11,260.0,+,70.0,Active,1,LEO,USA,USA,Commercial,Communications,Falcon,1 49145U 21082R   25287.91389634 -.00000601  00000+0 -42532-4 0  9991,2 49145  69.9987 261.9901 0003505 269.1535  90.9222 14.98338147225129,14.98338147,0.0003505,LEO
49146,STARLINK-3116,2021,96.16,260.0,+,70.0,Active,1,LEO,USA,USA,Commercial,Communications,Falcon,1 49146U 21082S   25287.99036025 -.00000343  00000+0 -21440-4 0  9991,2 49146  69.9976 282.1432 0002948 271.6755  88.4066 14.97523341225796,14.97523341,0.0002948,LEO
49147,STARLINK-3071,2021,96.11,260.0,+,70.0,Active,1,LEO,USA,USA,Commercial,Communications,Falcon,1 49147U 21082T   25287.92641382 -.00000492  00000+0 -33444-4 0  9995,2 49147  69.9984 261.9764 0002667 271.7601  88.3252 14.98328302225133,14.98328302,0.0002667,LEO
49148,STARLINK-3048,2021,96.16,260.0,+,70.0,Active,1,LEO,USA,USA,Commercial,Communications,Falcon,1 49148U 21082U   25287.71482457 -.00000736  00000+0 -55129-4 0  9994,2 49148  69.9978 282.8164 0003005 270.1416  89.9399 14.97520406224593,14.97520406,0.0003005,LEO
49151,STARLINK-3102,2021,96.11,260.0,+,70.0,Active,1,LEO,USA,USA,Commercial,Communications,Falcon,1 49151U 21082X   25287.63850793 -.00002125  00000+0 -17035-3 0  9998,2 49151  69.9986 262.6909 0002926 271.8519  88.2305 14.98337547226282,14.98337547,0.0002926,LEO
49153,STARLINK-3072,2021,96.11,260.0,+,70.0,Active,1,LEO,USA,USA,Commercial,Communications,Falcon,1 49153U 21082Z   25287.89720494 -.00000293  00000+0 -16801-4 0  9997,2 49153  69.9989 262.0462 0002610 273.1010  86.9850 14.98334007226330,14.98334007,0.000261,LEO
49154,STARLINK-3068,2021,96.16,260.0,+,70.0,Active,1,LEO,USA,USA,Commercial,Communications,Falcon,1 49154U 21082AA  25287.37663669 -.00004603  00000+0 -38572-3 0  9998,2 49154  69.9974 283.6708 0003442 270.1447  89.9317 14.97573181225621,14.97573181,0.0003442,LEO
49155,STARLINK-3060,2021,96.11,260.0,+,70.0,Active,1,LEO,USA,USA,Commercial,Communications,Falcon,1 49155U 21082AB  25287.35895338 -.00000872  00000+0 -65314-4 0  9996,2 49155  69.9985 263.3954 0003233 273.7087  86.3703 14.98323618226124,14.98323618,0.0003233,LEO
